OBJECT B                
1 51825U 22019B   25045.93867002  .00027644  00000+0  84191-3 0  9994
2 51825  97.3990 121.8747 0012479 101.1810 259.0836 15.33879468164283
